[{"OBJECT_NAME":"STARLINK-37097","OBJECT_ID":"2026-054G","EPOCH":"2026-04-08T06:00:00.999648","MEAN_MOTION":15.75279936,"ECCENTRICITY":7.223e-5,"INCLINATION":53.159,"RA_OF_ASC_NODE":164.5166,"ARG_OF_PERICENTER":88.5376,"MEAN_ANOMALY":114.2112,"EPHEMERIS_TYPE":0,"CLASSIFICATION_TYPE":"U","NORAD_CAT_ID":68238,"ELEMENT_SET_NO":999,"REV_AT_EPOCH":466,"BSTAR":-0.00052005838,"MEAN_MOTION_DOT":-0.00079748,"MEAN_MOTION_DDOT":0},{"OBJECT_NAME":"STARLINK-37096","OBJECT_ID":"2026-054H","EPOCH":"2026-04-08T06:00:00.999648","MEAN_MOTION":15.75290726,"ECCENTRICITY":0.00010992,"INCLINATION":53.1584,"RA_OF_ASC_NODE":164.6223,"ARG_OF_PERICENTER":92.234,"MEAN_ANOMALY":58.9965,"EPHEMERIS_TYPE":0,"CLASSIFICATION_TYPE":"U","NORAD_CAT_ID":68239,"ELEMENT_SET_NO":999,"REV_AT_EPOCH":466,"BSTAR":-0.00064538384,"MEAN_MOTION_DOT":-0.00098645,"MEAN_MOTION_DDOT":0},{"OBJECT_NAME":"STARLINK-37092","OBJECT_ID":"2026-054J","EPOCH":"2026-04-08T05:34:43.947840","MEAN_MOTION":15.75298647,"ECCENTRICITY":0.00014688,"INCLINATION":53.1567,"RA_OF_ASC_NODE":164.8144,"ARG_OF_PERICENTER":65.9073,"MEAN_ANOMALY":294.2101,"EPHEMERIS_TYPE":0,"CLASSIFICATION_TYPE":"U","NORAD_CAT_ID":68240,"ELEMENT_SET_NO":999,"REV_AT_EPOCH":344,"BSTAR":0.0013020071,"MEAN_MOTION_DOT":0.00204369,"MEAN_MOTION_DDOT":0},{"OBJECT_NAME":"STARLINK-37094","OBJECT_ID":"2026-054K","EPOCH":"2026-04-08T06:31:50.322144","MEAN_MOTION":15.80916915,"ECCENTRICITY":0.00014033,"INCLINATION":53.1572,"RA_OF_ASC_NODE":164.3406,"ARG_OF_PERICENTER":82.3322,"MEAN_ANOMALY":277.786,"EPHEMERIS_TYPE":0,"CLASSIFICATION_TYPE":"U","NORAD_CAT_ID":68241,"ELEMENT_SET_NO":999,"REV_AT_EPOCH":345,"BSTAR":0.00082256019,"MEAN_MOTION_DOT":0.00165123,"MEAN_MOTION_DDOT":0},{"OBJECT_NAME":"STARLINK-36356","OBJECT_ID":"2026-054L","EPOCH":"2026-04-08T05:41:16.086336","MEAN_MOTION":15.75306735,"ECCENTRICITY":0.00012168,"INCLINATION":53.1571,"RA_OF_ASC_NODE":164.8442,"ARG_OF_PERICENTER":78.464,"MEAN_ANOMALY":281.6516,"EPHEMERIS_TYPE":0,"CLASSIFICATION_TYPE":"U","NORAD_CAT_ID":68242,"ELEMENT_SET_NO":999,"REV_AT_EPOCH":344,"BSTAR":0.0013001998,"MEAN_MOTION_DOT":0.00204151,"MEAN_MOTION_DDOT":0},{"OBJECT_NAME":"STARLINK-36345","OBJECT_ID":"2026-054M","EPOCH":"2026-04-08T05:54:20.492928","MEAN_MOTION":15.7524337,"ECCENTRICITY":0.00014391,"INCLINATION":53.1589,"RA_OF_ASC_NODE":164.9052,"ARG_OF_PERICENTER":84.4087,"MEAN_ANOMALY":275.7097,"EPHEMERIS_TYPE":0,"CLASSIFICATION_TYPE":"U","NORAD_CAT_ID":68243,"ELEMENT_SET_NO":999,"REV_AT_EPOCH":344,"BSTAR":0.00091870459,"MEAN_MOTION_DOT":0.00142612,"MEAN_MOTION_DDOT":0},{"OBJECT_NAME":"STARLINK-36310","OBJECT_ID":"2026-054N","EPOCH":"2026-04-08T06:27:30.849984","MEAN_MOTION":15.8096486,"ECCENTRICITY":0.00016831,"INCLINATION":53.1573,"RA_OF_ASC_NODE":164.3208,"ARG_OF_PERICENTER":55.4019,"MEAN_ANOMALY":304.7163,"EPHEMERIS_TYPE":0,"CLASSIFICATION_TYPE":"U","NORAD_CAT_ID":68244,"ELEMENT_SET_NO":999,"REV_AT_EPOCH":345,"BSTAR":0.0012384588,"MEAN_MOTION_DOT":0.00252067,"MEAN_MOTION_DDOT":0},{"OBJECT_NAME":"STARLINK-36247","OBJECT_ID":"2026-054P","EPOCH":"2026-04-08T06:28:35.519520","MEAN_MOTION":15.8095859,"ECCENTRICITY":0.00013259,"INCLINATION":53.1572,"RA_OF_ASC_NODE":164.3262,"ARG_OF_PERICENTER":104.1966,"MEAN_ANOMALY":255.9204,"EPHEMERIS_TYPE":0,"CLASSIFICATION_TYPE":"U","NORAD_CAT_ID":68245,"ELEMENT_SET_NO":999,"REV_AT_EPOCH":345,"BSTAR":0.0011835095,"MEAN_MOTION_DOT":0.00240454,"MEAN_MOTION_DDOT":0},{"OBJECT_NAME":"STARLINK-37043","OBJECT_ID":"2026-054Q","EPOCH":"2026-04-07T21:20:22.792416","MEAN_MOTION":15.80217775,"ECCENTRICITY":0.0002493,"INCLINATION":53.1576,"RA_OF_ASC_NODE":166.2179,"ARG_OF_PERICENTER":41.2955,"MEAN_ANOMALY":318.8256,"EPHEMERIS_TYPE":0,"CLASSIFICATION_TYPE":"U","NORAD_CAT_ID":68246,"ELEMENT_SET_NO":999,"REV_AT_EPOCH":339,"BSTAR":-0.0020241,"MEAN_MOTION_DOT":-0.00372207,"MEAN_MOTION_DDOT":0},{"OBJECT_NAME":"STARLINK-37044","OBJECT_ID":"2026-054R","EPOCH":"2026-04-08T06:46:29.335008","MEAN_MOTION":15.75284307,"ECCENTRICITY":0.00014933,"INCLINATION":53.1584,"RA_OF_ASC_NODE":164.4087,"ARG_OF_PERICENTER":65.4796,"MEAN_ANOMALY":294.638,"EPHEMERIS_TYPE":0,"CLASSIFICATION_TYPE":"U","NORAD_CAT_ID":68247,"ELEMENT_SET_NO":999,"REV_AT_EPOCH":345,"BSTAR":0.0010907213,"MEAN_MOTION_DOT":0.00170299,"MEAN_MOTION_DDOT":0},{"OBJECT_NAME":"STARLINK-36997","OBJECT_ID":"2026-054S","EPOCH":"2026-04-08T05:47:48.376896","MEAN_MOTION":15.75282575,"ECCENTRICITY":0.0001391,"INCLINATION":53.1582,"RA_OF_ASC_NODE":164.8745,"ARG_OF_PERICENTER":67.7561,"MEAN_ANOMALY":292.3607,"EPHEMERIS_TYPE":0,"CLASSIFICATION_TYPE":"U","NORAD_CAT_ID":68248,"ELEMENT_SET_NO":999,"REV_AT_EPOCH":344,"BSTAR":0.0011748107,"MEAN_MOTION_DOT":0.00183759,"MEAN_MOTION_DDOT":0},{"OBJECT_NAME":"STARLINK-37141","OBJECT_ID":"2026-054T","EPOCH":"2026-04-08T05:28:11.705664","MEAN_MOTION":15.75290111,"ECCENTRICITY":0.00012908,"INCLINATION":53.1572,"RA_OF_ASC_NODE":164.7839,"ARG_OF_PERICENTER":97.9043,"MEAN_ANOMALY":262.2124,"EPHEMERIS_TYPE":0,"CLASSIFICATION_TYPE":"U","NORAD_CAT_ID":68249,"ELEMENT_SET_NO":999,"REV_AT_EPOCH":344,"BSTAR":0.0010509206,"MEAN_MOTION_DOT":0.00163979,"MEAN_MOTION_DDOT":0},{"OBJECT_NAME":"STARLINK-37087","OBJECT_ID":"2026-054U","EPOCH":"2026-04-08T05:35:12.336288","MEAN_MOTION":15.75287335,"ECCENTRICITY":0.00011622,"INCLINATION":53.157,"RA_OF_ASC_NODE":164.8163,"ARG_OF_PERICENTER":64.7872,"MEAN_ANOMALY":295.3268,"EPHEMERIS_TYPE":0,"CLASSIFICATION_TYPE":"U","NORAD_CAT_ID":68250,"ELEMENT_SET_NO":999,"REV_AT_EPOCH":344,"BSTAR":0.0010659803,"MEAN_MOTION_DOT":0.00166365,"MEAN_MOTION_DDOT":0},{"OBJECT_NAME":"STARLINK-36274","OBJECT_ID":"2026-054V","EPOCH":"2026-04-08T05:41:44.533536","MEAN_MOTION":15.75309773,"ECCENTRICITY":0.00012397,"INCLINATION":53.1574,"RA_OF_ASC_NODE":164.8465,"ARG_OF_PERICENTER":76.1327,"MEAN_ANOMALY":283.9831,"EPHEMERIS_TYPE":0,"CLASSIFICATION_TYPE":"U","NORAD_CAT_ID":68251,"ELEMENT_SET_NO":999,"REV_AT_EPOCH":344,"BSTAR":0.0015120901,"MEAN_MOTION_DOT":0.00238535,"MEAN_MOTION_DDOT":0},{"OBJECT_NAME":"STARLINK-37085","OBJECT_ID":"2026-054W","EPOCH":"2026-04-08T06:19:58.065600","MEAN_MOTION":15.80873802,"ECCENTRICITY":0.00014033,"INCLINATION":53.1572,"RA_OF_ASC_NODE":164.285,"ARG_OF_PERICENTER":70.7702,"MEAN_ANOMALY":289.3472,"EPHEMERIS_TYPE":0,"CLASSIFICATION_TYPE":"U","NORAD_CAT_ID":68252,"ELEMENT_SET_NO":999,"REV_AT_EPOCH":345,"BSTAR":0.00087934712,"MEAN_MOTION_DOT":0.00176453,"MEAN_MOTION_DDOT":0},{"OBJECT_NAME":"STARLINK-37086","OBJECT_ID":"2026-054X","EPOCH":"2026-04-08T06:18:52.480224","MEAN_MOTION":15.8091968,"ECCENTRICITY":0.00014938,"INCLINATION":53.1571,"RA_OF_ASC_NODE":164.2805,"ARG_OF_PERICENTER":93.233,"MEAN_ANOMALY":266.8864,"EPHEMERIS_TYPE":0,"CLASSIFICATION_TYPE":"U","NORAD_CAT_ID":68253,"ELEMENT_SET_NO":999,"REV_AT_EPOCH":345,"BSTAR":0.00082690728,"MEAN_MOTION_DOT":0.00166039,"MEAN_MOTION_DDOT":0}]
