STARLINK-37097          
1 68238U 26054G   26098.25001157 -.00079748  00000+0 -52006-3 0  9992
2 68238  53.1590 164.5166 0000722  88.5376 114.2112 15.75279936  4661
STARLINK-37096          
1 68239U 26054H   26098.25001157 -.00098645  00000+0 -64538-3 0  9993
2 68239  53.1584 164.6223 0001099  92.2340  58.9965 15.75290726  4661
STARLINK-37092          
1 68240U 26054J   26098.23245310  .00204369  00000+0  13020-2 0  9993
2 68240  53.1567 164.8144 0001468  65.9073 294.2101 15.75298647  3440
STARLINK-37094          
1 68241U 26054K   26098.27211021  .00165123  00000+0  82256-3 0  9992
2 68241  53.1572 164.3406 0001403  82.3322 277.7860 15.80916915  3452
STARLINK-36356          
1 68242U 26054L   26098.23699174  .00204151  00000+0  13002-2 0  9995
2 68242  53.1571 164.8442 0001216  78.4640 281.6516 15.75306735  3446
STARLINK-36345          
1 68243U 26054M   26098.24607052  .00142612  00000+0  91870-3 0  9994
2 68243  53.1589 164.9052 0001439  84.4087 275.7097 15.75243370  3446
STARLINK-36310          
1 68244U 26054N   26098.26910706  .00252067  00000+0  12385-2 0  9999
2 68244  53.1573 164.3208 0001683  55.4019 304.7163 15.80964860  3459
STARLINK-36247          
1 68245U 26054P   26098.26985555  .00240454  00000+0  11835-2 0  9990
2 68245  53.1572 164.3262 0001325 104.1966 255.9204 15.80958590  3451
STARLINK-37043          
1 68246U 26054Q   26097.88915269 -.00372207  00000+0 -20241-2 0  9998
2 68246  53.1576 166.2179 0002493  41.2955 318.8256 15.80217775  3392
STARLINK-37044          
1 68247U 26054R   26098.28228397  .00170299  00000+0  10907-2 0  9996
2 68247  53.1584 164.4087 0001493  65.4796 294.6380 15.75284307  3455
STARLINK-36997          
1 68248U 26054S   26098.24153214  .00183759  00000+0  11748-2 0  9997
2 68248  53.1582 164.8745 0001391  67.7561 292.3607 15.75282575  3442
STARLINK-37141          
1 68249U 26054T   26098.22791326  .00163979  00000+0  10509-2 0  9994
2 68249  53.1572 164.7839 0001290  97.9043 262.2124 15.75290111  3448
STARLINK-37087          
1 68250U 26054U   26098.23278167  .00166365  00000+0  10660-2 0  9990
2 68250  53.1570 164.8163 0001162  64.7872 295.3268 15.75287335  3449
STARLINK-36274          
1 68251U 26054V   26098.23732099  .00238535  00000+0  15121-2 0  9996
2 68251  53.1574 164.8465 0001239  76.1327 283.9831 15.75309773  3446
STARLINK-37085          
1 68252U 26054W   26098.26386650  .00176453  00000+0  87935-3 0  9991
2 68252  53.1572 164.2850 0001403  70.7702 289.3472 15.80873802  3454
STARLINK-37086          
1 68253U 26054X   26098.26310741  .00166039  00000+0  82691-3 0  9993
2 68253  53.1571 164.2805 0001493  93.2330 266.8864 15.80919680  3450
